{
  "type": "FeatureCollection",
  "features": [
    {
      "type": "Feature",
      "properties": {
        "norad_id": 45526,
        "name": "FENGYUN 1C DEB",
        "group": "fengyun-1c-debris",
        "lat": -49.03959997203914,
        "lon": -125.70733150659788,
        "alt_km": 775.9447352180041,
        "timestamp": "2025-12-18T08:58:43.702424+00:00",
        "meta_object_name": "FENGYUN 1C DEB",
        "meta_object_id": "1999-025EYR",
        "meta_epoch": "2025-12-17T03:16:34.533120",
        "meta_mean_motion": 14.25976131,
        "meta_eccentricity": 0.00546055,
        "meta_inclination": 98.7635,
        "meta_ra_of_asc_node": 63.2909,
        "meta_arg_of_pericenter": 210.044,
        "meta_mean_anomaly": 149.7604,
        "meta_ephemeris_type": 0,
        "meta_classification_type": "U",
        "meta_norad_cat_id": 45526,
        "meta_element_set_no": 999,
        "meta_rev_at_epoch": 43439,
        "meta_bstar": 0.0014474063,
        "meta_mean_motion_dot": 3.463e-05,
        "meta_mean_motion_ddot": 0,
        "tle_line1": "1 45526U 99025EYR 25351.13651080  .00003463  00000+0  14474-2 0  9994",
        "tle_line2": "2 45526  98.7635  63.2909 0054605 210.0440 149.7604 14.25976131434395"
      },
      "geometry": {
        "type": "Point",
        "coordinates": [
          -125.70733150659788,
          -49.03959997203914
        ]
      }
    },
    {
      "type": "Feature",
      "properties": {
        "norad_id": 45527,
        "name": "FENGYUN 1C DEB",
        "group": "fengyun-1c-debris",
        "lat": -26.623199478263444,
        "lon": -125.45533613825786,
        "alt_km": 775.823108709601,
        "timestamp": "2025-12-18T08:58:43.702434+00:00",
        "meta_object_name": "FENGYUN 1C DEB",
        "meta_object_id": "1999-025EYS",
        "meta_epoch": "2025-12-17T15:09:07.210944",
        "meta_mean_motion": 14.24538852,
        "meta_eccentricity": 0.00555116,
        "meta_inclination": 98.74,
        "meta_ra_of_asc_node": 58.2283,
        "meta_arg_of_pericenter": 211.7202,
        "meta_mean_anomaly": 148.0629,
        "meta_ephemeris_type": 0,
        "meta_classification_type": "U",
        "meta_norad_cat_id": 45527,
        "meta_element_set_no": 999,
        "meta_rev_at_epoch": 39649,
        "meta_bstar": 0.0012569331,
        "meta_mean_motion_dot": 2.919e-05,
        "meta_mean_motion_ddot": 0,
        "tle_line1": "1 45527U 99025EYS 25351.63133346  .00002919  00000+0  12569-2 0  9998",
        "tle_line2": "2 45527  98.7400  58.2283 0055511 211.7202 148.0629 14.24538852396496"
      },
      "geometry": {
        "type": "Point",
        "coordinates": [
          -125.45533613825786,
          -26.623199478263444
        ]
      }
    },
    {
      "type": "Feature",
      "properties": {
        "norad_id": 46440,
        "name": "FENGYUN 1C DEB",
        "group": "fengyun-1c-debris",
        "lat": 61.061693947569815,
        "lon": -144.91672301775793,
        "alt_km": 691.3411425929535,
        "timestamp": "2025-12-18T08:58:43.702444+00:00",
        "meta_object_name": "FENGYUN 1C DEB",
        "meta_object_id": "1999-025EYV",
        "meta_epoch": "2025-12-13T07:01:11.080704",
        "meta_mean_motion": 14.20320542,
        "meta_eccentricity": 0.01762461,
        "meta_inclination": 98.5934,
        "meta_ra_of_asc_node": 14.2712,
        "meta_arg_of_pericenter": 133.6484,
        "meta_mean_anomaly": 295.5393,
        "meta_ephemeris_type": 0,
        "meta_classification_type": "U",
        "meta_norad_cat_id": 46440,
        "meta_element_set_no": 999,
        "meta_rev_at_epoch": 62377,
        "meta_bstar": 0.00044388464,
        "meta_mean_motion_dot": 1.068e-05,
        "meta_mean_motion_ddot": 0,
        "tle_line1": "1 46440U 99025EYV 25347.29248936  .00001068  00000+0  44388-3 0  9991",
        "tle_line2": "2 46440  98.5934  14.2712 0176246 133.6484 295.5393 14.20320542623774"
      },
      "geometry": {
        "type": "Point",
        "coordinates": [
          -144.91672301775793,
          61.061693947569815
        ]
      }
    },
    {
      "type": "Feature",
      "properties": {
        "norad_id": 46443,
        "name": "FENGYUN 1C DEB",
        "group": "fengyun-1c-debris",
        "lat": 55.50472856196058,
        "lon": -106.93527952432274,
        "alt_km": 906.8675336612641,
        "timestamp": "2025-12-18T08:58:43.702454+00:00",
        "meta_object_name": "FENGYUN 1C DEB",
        "meta_object_id": "1999-025EYY",
        "meta_epoch": "2025-12-17T16:05:42.758592",
        "meta_mean_motion": 14.10868547,
        "meta_eccentricity": 0.00965507,
        "meta_inclination": 99.2145,
        "meta_ra_of_asc_node": 58.6794,
        "meta_arg_of_pericenter": 341.9226,
        "meta_mean_anomaly": 169.6245,
        "meta_ephemeris_type": 0,
        "meta_classification_type": "U",
        "meta_norad_cat_id": 46443,
        "meta_element_set_no": 999,
        "meta_rev_at_epoch": 59665,
        "meta_bstar": 0.0013546095,
        "meta_mean_motion_dot": 2.49e-05,
        "meta_mean_motion_ddot": 0,
        "tle_line1": "1 46443U 99025EYY 25351.67063378  .00002490  00000+0  13546-2 0  9997",
        "tle_line2": "2 46443  99.2145  58.6794 0096550 341.9226 169.6245 14.10868547596652"
      },
      "geometry": {
        "type": "Point",
        "coordinates": [
          -106.93527952432274,
          55.50472856196058
        ]
      }
    },
    {
      "type": "Feature",
      "properties": {
        "norad_id": 46444,
        "name": "FENGYUN 1C DEB",
        "group": "fengyun-1c-debris",
        "lat": 45.928289164778086,
        "lon": -176.8808457728754,
        "alt_km": 736.4701560390931,
        "timestamp": "2025-12-18T08:58:43.702465+00:00",
        "meta_object_name": "FENGYUN 1C DEB",
        "meta_object_id": "1999-025EYZ",
        "meta_epoch": "2025-12-16T18:29:37.585824",
        "meta_mean_motion": 14.27165633,
        "meta_eccentricity": 0.0084568,
        "meta_inclination": 98.5127,
        "meta_ra_of_asc_node": 352.6584,
        "meta_arg_of_pericenter": 139.1596,
        "meta_mean_anomaly": 40.2045,
        "meta_ephemeris_type": 0,
        "meta_classification_type": "U",
        "meta_norad_cat_id": 46444,
        "meta_element_set_no": 999,
        "meta_rev_at_epoch": 62639,
        "meta_bstar": 0.00044880034,
        "meta_mean_motion_dot": 1.096e-05,
        "meta_mean_motion_ddot": 0,
        "tle_line1": "1 46444U 99025EYZ 25350.77057391  .00001096  00000+0  44880-3 0  9993",
        "tle_line2": "2 46444  98.5127 352.6584 0084568 139.1596  40.2045 14.27165633626393"
      },
      "geometry": {
        "type": "Point",
        "coordinates": [
          -176.8808457728754,
          45.928289164778086
        ]
      }
    },
    {
      "type": "Feature",
      "properties": {
        "norad_id": 46449,
        "name": "FENGYUN 1C DEB",
        "group": "fengyun-1c-debris",
        "lat": 56.81226067037711,
        "lon": -139.9218813987993,
        "alt_km": 920.5593749783156,
        "timestamp": "2025-12-18T08:58:43.702475+00:00",
        "meta_object_name": "FENGYUN 1C DEB",
        "meta_object_id": "1999-025EZE",
        "meta_epoch": "2025-11-27T19:57:02.428704",
        "meta_mean_motion": 14.19021773,
        "meta_eccentricity": 0.02029501,
        "meta_inclination": 98.6463,
        "meta_ra_of_asc_node": 6.5721,
        "meta_arg_of_pericenter": 314.0231,
        "meta_mean_anomaly": 44.4375,
        "meta_ephemeris_type": 0,
        "meta_classification_type": "U",
        "meta_norad_cat_id": 46449,
        "meta_element_set_no": 999,
        "meta_rev_at_epoch": 57425,
        "meta_bstar": 0.00050383916,
        "meta_mean_motion_dot": 1.244e-05,
        "meta_mean_motion_ddot": 0,
        "tle_line1": "1 46449U 99025EZE 25331.83127811  .00001244  00000+0  50384-3 0  9990",
        "tle_line2": "2 46449  98.6463   6.5721 0202950 314.0231  44.4375 14.19021773574253"
      },
      "geometry": {
        "type": "Point",
        "coordinates": [
          -139.9218813987993,
          56.81226067037711
        ]
      }
    },
    {
      "type": "Feature",
      "properties": {
        "norad_id": 46450,
        "name": "FENGYUN 1C DEB",
        "group": "fengyun-1c-debris",
        "lat": -31.366716126946898,
        "lon": -146.6314262191469,
        "alt_km": 853.9268721033059,
        "timestamp": "2025-12-18T08:58:43.702485+00:00",
        "meta_object_name": "FENGYUN 1C DEB",
        "meta_object_id": "1999-025EZF",
        "meta_epoch": "2025-12-13T07:39:30.370464",
        "meta_mean_motion": 14.03577892,
        "meta_eccentricity": 0.01825974,
        "meta_inclination": 98.0791,
        "meta_ra_of_asc_node": 203.905,
        "meta_arg_of_pericenter": 59.283,
        "meta_mean_anomaly": 302.6187,
        "meta_ephemeris_type": 0,
        "meta_classification_type": "U",
        "meta_norad_cat_id": 46450,
        "meta_element_set_no": 999,
        "meta_rev_at_epoch": 61127,
        "meta_bstar": 0.0033356689,
        "meta_mean_motion_dot": 6.035e-05,
        "meta_mean_motion_ddot": 0,
        "tle_line1": "1 46450U 99025EZF 25347.31910151  .00006035  00000+0  33357-2 0  9992",
        "tle_line2": "2 46450  98.0791 203.9050 0182597  59.2830 302.6187 14.03577892611273"
      },
      "geometry": {
        "type": "Point",
        "coordinates": [
          -146.6314262191469,
          -31.366716126946898
        ]
      }
    }
  ]
}